BEIDOU-2 IGSO-1 (C06)   
1 36828U 10036A   24273.43925896 -.00000140  00000+0  00000+0 0  9995
2 36828  54.2540 168.6260 0040780 204.2809 259.0169  1.00252369 51930
BEIDOU-2 G4 (C04)       
1 37210U 10057A   24273.78011649 -.00000119  00000+0  00000+0 0  9990
2 37210   2.0953  69.7418 0008006 164.6640 215.5741  1.00271680 51028
BEIDOU-2 IGSO-2 (C07)   
1 37256U 10068A   24272.45535439 -.00000176  00000+0  00000+0 0  9996
2 37256  48.6909 279.5558 0040217 217.7142 142.3484  1.00270302 50501
BEIDOU-2 IGSO-3 (C08)   
1 37384U 11013A   24273.81344887 -.00000174  00000+0  00000+0 0  9993
2 37384  61.5132  46.1053 0032389 175.8520 187.6134  1.00282904 49398
BEIDOU-2 IGSO-4 (C09)   
1 37763U 11038A   24273.69531432 -.00000117  00000+0  00000+0 0  9998
2 37763  54.5604 171.2583 0129004 229.1386 313.9001  1.00286353 48373
BEIDOU-2 IGSO-5 (C10)   
1 37948U 11073A   24273.82260858 -.00000162  00000+0  00000+0 0  9998
2 37948  48.8227 279.2331 0102881 221.8168 260.2439  1.00269658 46866
BEIDOU-2 G5 (C05)       
1 38091U 12008A   24273.87271588  .00000049  00000+0  00000+0 0  9997
2 38091   2.0148  70.5434 0007206 221.8874  89.5997  1.00271953 46092
BEIDOU-2 M3 (C11)       
1 38250U 12018A   24273.63888894 -.00000074  00000+0  00000+0 0  9992
2 38250  56.2642 325.8636 0024800 262.2383  97.5488  1.86233675 84293
BEIDOU-2 M4 (C12)       
1 38251U 12018B   24273.03196410 -.00000074  00000+0  00000+0 0  9993
2 38251  56.1704 325.1475 0015668 262.3167  97.5728  1.86232078 84281
BEIDOU-2 M6 (C14)       
1 38775U 12050B   24273.27847782  .00000023  00000+0  00000+0 0  9994
2 38775  55.9996  83.6855 0010840 348.7416  11.2742  1.86231169 81650
BEIDOU-2 G6 (C02)       
1 38953U 12059A   24273.91750712 -.00000182  00000+0  00000+0 0  9995
2 38953   2.8233  79.6315 0006262 304.7004  39.1339  1.00269841 43638
BEIDOU-3S IGSO-1S (C31) 
1 40549U 15019A   24273.77323479 -.00000155  00000+0  00000+0 0  9998
2 40549  50.3776 302.9519 0036448 197.6190 243.4307  1.00282788 34803
BEIDOU-3S M2S (C58)     
1 40748U 15037A   24273.23182163 -.00000073  00000+0  00000+0 0  9992
2 40748  55.3993 323.4960 0012750 250.5103 109.4193  1.86229280 62460
BEIDOU-3S M1S (C57)     
1 40749U 15037B   24273.50459548 -.00000072  00000+0  00000+0 0  9996
2 40749  55.4018 323.4733 0003300 314.7711  45.2700  1.86227713 62467
BEIDOU-3S IGSO-2S (C56) 
1 40938U 15053A   24273.72987837 -.00000123  00000+0  00000+0 0  9992
2 40938  50.1982 266.1791 0052940 190.1124 271.6436  1.00282938 33087
BEIDOU-2 IGSO-6 (C13)   
1 41434U 16021A   24273.83850010 -.00000145  00000+0  00000+0 0  9998
2 41434  59.3384  44.2998 0053366 222.2774 138.3281  1.00294461 31204
BEIDOU-2 G7 (C03)       
1 41586U 16037A   24273.84180156 -.00000362  00000+0  00000+0 0  9992
2 41586   1.6276  66.1033 0006587 351.7975   4.7838  1.00269488   615
BEIDOU-3 M1 (C19)       
1 43001U 17069A   24273.58134429  .00000023  00000+0  00000+0 0  9998
2 43001  56.1499  83.7851 0007104 307.2864  52.6885  1.86231554 46951
BEIDOU-3 M2 (C20)       
1 43002U 17069B   24273.51883220  .00000023  00000+0  00000+0 0  9992
2 43002  56.1485  83.8236 0005567 344.2522  15.7704  1.86231098 46940
BEIDOU-3 M7 (C27)       
1 43107U 18003A   24273.26700808 -.00000075  00000+0  00000+0 0  9997
2 43107  54.8576 324.0401 0002524  85.1119 274.9835  1.86232609 45693
BEIDOU-3 M8 (C28)       
1 43108U 18003B   24273.20831166 -.00000075  00000+0  00000+0 0  9994
2 43108  54.8507 324.0270 0004883 253.9348 106.0781  1.86231040 45706
BEIDOU-3 M4 (C22)       
1 43207U 18018A   24272.03859965  .00000023  00000+0  00000+0 0  9999
2 43207  56.1071  83.9218 0004923  30.3717 329.6986  1.86231441 45066
BEIDOU-3 M3 (C21)       
1 43208U 18018B   24273.71608815  .00000023  00000+0  00000+0 0  9992
2 43208  56.1081  83.8705 0005101 328.2998  31.7090  1.86231473 45092
BEIDOU-3 M9 (C29)       
1 43245U 18029A   24273.39945687 -.00000071  00000+0  00000+0 0  9994
2 43245  54.7373 321.7327 0002104 239.1315 120.9150  1.86232894 44240
BEIDOU-3 M10 (C30)      
1 43246U 18029B   24272.79202318 -.00000071  00000+0  00000+0 0  9995
2 43246  54.7355 321.7817 0002764 346.8681  13.1908  1.86233053 44218
BEIDOU-2 IGSO-7 (C16)   
1 43539U 18057A   24273.62772139 -.00000152  00000+0  00000+0 0  9997
2 43539  55.1471 168.4796 0078119 233.3238 306.1849  1.00280348 22865
BEIDOU-3 M5 (C23)       
1 43581U 18062A   24273.01649160 -.00000050  00000+0  00000+0 0  9997
2 43581  54.1222 203.6000 0004040 296.1057  63.8370  1.86228817 41979
BEIDOU-3 M6 (C24)       
1 43582U 18062B   24273.41876576 -.00000048  00000+0  00000+0 0  9992
2 43582  54.1217 203.5760 0005703  16.8933 343.1105  1.86229910 41989
BEIDOU-3 M12 (C26)      
1 43602U 18067A   24273.35197613 -.00000048  00000+0  00000+0 0  9991
2 43602  54.2128 202.2693 0007771  25.1504 334.8742  1.86227710 41462
BEIDOU-3 M11 (C25)      
1 43603U 18067B   24273.48531096 -.00000047  00000+0  00000+0 0  9992
2 43603  54.2101 202.2294 0004551  13.9252 346.0745  1.86227255 41494
BEIDOU-3 M13 (C32)      
1 43622U 18072A   24273.44708771  .00000022  00000+0  00000+0 0  9993
2 43622  56.0797  83.4036 0003909 305.2441  54.7586  1.86231439 41004
BEIDOU-3 M14 (C33)      
1 43623U 18072B   24273.84950083  .00000022  00000+0  00000+0 0  9993
2 43623  56.0819  83.3835 0002741   6.0832 353.9585  1.86231402 41002
BEIDOU-3 M16 (C35)      
1 43647U 18078A   24273.47469184 -.00000071  00000+0  00000+0 0  9996
2 43647  54.6340 321.8205 0005880  11.0683 349.0119  1.86232379 40517
BEIDOU-3 M15 (C34)      
1 43648U 18078B   24273.60381670 -.00000071  00000+0  00000+0 0  9995
2 43648  54.6296 321.8185 0002511  12.7624 347.3113  1.86232393 40528
BEIDOU-3 G1 (C59)       
1 43683U 18085A   24273.84762253 -.00000287  00000+0  00000+0 0  9997
2 43683   2.4453 105.7393 0002115  37.7594 310.7190  1.00268437 21786
BEIDOU-3 M17 (C36)      
1 43706U 18093A   24273.21851130 -.00000049  00000+0  00000+0 0  9992
2 43706  54.2050 203.5393 0008950 289.7188  70.1692  1.86228458 39885
BEIDOU-3 M18 (C37)      
1 43707U 18093B   24273.08300604 -.00000050  00000+0  00000+0 0  9995
2 43707  54.2060 203.5356 0007613 319.7181  40.2099  1.86230004 39876
BEIDOU-3 IGSO-1 (C38)   
1 44204U 19023A   24273.77186284 -.00000208  00000+0  00000+0 0  9999
2 44204  57.8017  44.1330 0024407 206.7002 155.4853  1.00270528   942
BEIDOU-2 G8 (C01)       
1 44231U 19027A   24273.84857823 -.00000255  00000+0  00000+0 0  9997
2 44231   1.7328  74.4225 0003399 183.6333 201.0262  1.00275299 19808
BEIDOU-3 IGSO-2 (C39)   
1 44337U 19035A   24273.89296383 -.00000146  00000+0  00000+0 0  9995
2 44337  55.1813 164.3524 0034595 202.4245  82.5358  1.00264888 19420
BEIDOU-3 M24 (C46)      
1 44542U 19061A   24273.15282901 -.00000049  00000+0  00000+0 0  9994
2 44542  54.4328 203.8484 0008544 356.7658   3.2127  1.86229480 34133
BEIDOU-3 M23 (C45)      
1 44543U 19061B   24273.65004069 -.00000046  00000+0  00000+0 0  9994
2 44543  54.4312 203.8004 0005621 344.1801 261.7149  1.86229678 34144
BEIDOU-3 IGSO-3 (C40)   
1 44709U 19073A   24272.44558185 -.00000149  00000+0  00000+0 0  9994
2 44709  55.8758 287.6304 0041249 191.0481 168.9055  1.00271043 18177
BEIDOU-3 M22 (C44)      
1 44793U 19078A   24273.53486774 -.00000071  00000+0  00000+0 0  9991
2 44793  54.4815 321.7377 0004551  17.0339 343.0485  1.86232274 33002
BEIDOU-3 M21 (C43)      
1 44794U 19078B   24273.12744766 -.00000072  00000+0  00000+0 0  9996
2 44794  54.4554 321.7257 0002623   0.7441 359.3227  1.86232744 32994
BEIDOU-3 M19 (C41)      
1 44864U 19090A   24272.95324650  .00000023  00000+0  00000+0 0  9999
2 44864  56.0137  83.5851 0015321 280.7037 154.9449  1.86231802 32573
BEIDOU-3 M20 (C42)      
1 44865U 19090B   24273.77976896  .00000022  00000+0  00000+0 0  9995
2 44865  56.0159  83.5911 0012904 295.8880  63.6070  1.86231769 32569
BEIDOU-3 G2 (C60)       
1 45344U 20017A   24273.90722248 -.00000149  00000+0  00000+0 0  9995
2 45344   2.4547  33.3404 0003642 189.8934 192.5620  1.00272422 16998
BEIDOU-3 G3 (C61)       
1 45807U 20040A   24273.90396788 -.00000363  00000+0  00000+0 0  9999
2 45807   0.9731  52.5404 0002775 306.6829  85.8537  1.00277354 15800
BEIDOU-3 G4             
1 56564U 23066A   24273.78011649 -.00000125  00000+0  00000+0 0  9994
2 56564   1.8672 288.5720 0005782 237.3532 283.8863  1.00273809  5127
BEIDOU-3 M25            
1 58654U 23207A   24273.21031349  .00000020  00000+0  00000+0 0  9993
2 58654  55.1983  83.5203 0000443 192.7063 167.3329  1.86232260  5186
BEIDOU-3 M26            
1 58655U 23207B   24273.54643470  .00000020  00000+0  00000+0 0  9994
2 58655  55.2006  83.4945 0001894 215.6372 144.3898  1.86231871  5177
